ONEWEB-0628             
1 55169U 23004AF  25056.54057825  .00000244  00000+0  64360-3 0  9990
2 55169  87.8807  85.5244 0001145 104.1197 256.0059 13.12442442105514
ONEWEB-0629             
1 55170U 23004AG  25056.08248582  .00000067  00000+0  13807-3 0  9996
2 55170  87.9028 100.9140 0001829 109.8498 250.2831 13.17648750104758
ONEWEB-0631             
1 55171U 23004AH  25055.76197740  .00000106  00000+0  23571-3 0  9993
2 55171  87.9053  70.3689 0001857  72.2619 287.8716 13.18685882106752
ONEWEB-0709             
1 55172U 23004AJ  25055.89174272 -.00000308  00000+0 -90375-3 0  9995
2 55172  87.8855 116.2492 0002435  79.3970 280.7432 13.11418144103319
ONEWEB-0710             
1 55173U 23004AK  25055.64120916 -.00000238  00000+0 -64552-3 0  9995
2 55173  87.9029 101.0266 0001766  96.8800 263.2532 13.17648354104690
ONEWEB-0711             
1 55174U 23004AL  25055.86291545  .00000067  00000+0  15415-3 0  9999
2 55174  87.8850 116.2233 0001063 104.6919 255.4327 13.11415932103279
ONEWEB-0713             
1 55175U 23004AM  25056.56823829 -.00000530  00000+0 -15327-2 0  9992
2 55175  87.8850 116.0905 0001546 102.5140 257.6161 13.11415656103355
ONEWEB-0715             
1 55176U 23004AN  25055.87648452 -.00000485  00000+0 -14042-2 0  9995
2 55176  87.8851 116.2287 0001888  88.8514 271.2830 13.11415221103300
